1 58113U 23161S   25312.56316799 -.00001576  00000+0 -41107-4 0  9997
2 58113  53.1608   8.3610 0001392  78.6487 281.4670 15.30181981115873